Skip Page Navigation
NASA Logo - Jet Propulsion Laboratory				+ View the NASA Portal
+ Center for Near-Earth Object Studies			
JPL Home	Earth	Solar System	Stars & Galaxies	Technology

JPL Solar System Dynamics
BODIES		ORBITS		EPHEMERIDES		TOOLS		PHYSICAL DATA		DISCOVERY		FAQ		SITE MAP

IMPORTANT: The SSD Announcement email list is now available. Major changes are coming in the near future, including possible hostname and/or URL changes. To be notified of such changes, subscribe to this email list.

Please visit this page for more details.


Don't show this message again
HORIZONS Web-Interface
This tool provides a web-based limited interface to JPL's HORIZONS system which can be used to generate ephemerides for solar-system bodies. Full access to HORIZONS features is available via the primary telnet interface. HORIZONS system news shows recent changes and improvements. A web-interface tutorial is available to assist new users.
Current Settings
Ephemeris Type [change] : 	ELEMENTS
Target Body [change] : 	3 Juno
Center [change] : 	Solar System Barycenter (SSB) [500@0]
Time Span [change] : 	Start=JD 2458850.0, Stop=JD 2464329.0, Intervals=500
Table Settings [change] : 	CSV format=YES
Display/Output [change] : 	default (formatted HTML)
Object Data Page
JPL/HORIZONS                       3 Juno                  2020-May-15 20:00:27
Rec #:       3 (+COV) Soln.date: 2020-Feb-22_15:13:41   # obs: 7136 (1820-2020)
 
IAU76/J2000 helio. ecliptic osc. elements (au, days, deg., period=Julian yrs):
 
  EPOCH=  2449658.5 ! 1994-Nov-02.00 (TDB)         Residual RMS= .32775
   EC= .2566624688644973   QR= 1.986822127344776   TP= 2448884.3061331077
   OM= 170.4178187456232   W=  247.3146135671198   IN= 12.96549584820669
   A= 2.672839785594788    MA= 174.6201711813279   ADIST= 3.3588574438448
   PER= 4.36986            N= .225550955           ANGMOM= .027181302
   DAN= 2.77106            DDN= 2.27188            L= 57.2011477
   B= -11.9469912          MOID= 1.03708005        TP= 1992-Sep-18.8061331077
 
Asteroid physical parameters (km, seconds, rotational period in hours):
   GM= n.a.                RAD= 123.298            ROTPER= 7.21
   H= 5.33                 G= .320                 B-V= .824
                           ALBEDO= .214            STYP= Sk
 
ASTEROID comments: 
1: soln ref.= JPL#111, OCC=0
2: source=ORB
Results
*******************************************************************************
Ephemeris / WWW_USER Fri May 15 20:00:27 2020 Pasadena, USA      / Horizons    
*******************************************************************************
Target body name: 3 Juno                          {source: JPL#111}
Center body name: Solar System Barycenter (0)     {source: DE431}
Center-site name: BODY CENTER
*******************************************************************************
Start time      : A.D. 2020-Jan-01 12:00:00.0000 TDB
Stop  time      : A.D. 2035-Jan-01 12:00:00.0000 TDB
Step-size       : 500 steps
*******************************************************************************
Center geodetic : 0.00000000,0.00000000,0.0000000 {E-lon(deg),Lat(deg),Alt(km)}
Center cylindric: 0.00000000,0.00000000,0.0000000 {E-lon(deg),Dxy(km),Dz(km)}
Center radii    : (undefined)                                                  
Keplerian GM    : 2.9630927492415936E-04 au^3/d^2
Small perturbers: Yes                             {source: SB431-N16}
Output units    : AU-D, deg, Julian Day Number (Tp)                            
Output type     : GEOMETRIC osculating elements
Output format   : 10
Reference frame : ICRF/J2000.0                                                 
Coordinate systm: Ecliptic and Mean Equinox of Reference Epoch                 
*******************************************************************************
Initial IAU76/J2000 heliocentric ecliptic osculating elements (au, days, deg.):
  EPOCH=  2449658.5 ! 1994-Nov-02.00 (TDB)         Residual RMS= .32775        
   EC= .2566624688644973   QR= 1.986822127344776   TP= 2448884.3061331077      
   OM= 170.4178187456232   W=  247.3146135671198   IN= 12.96549584820669       
  Equivalent ICRF heliocentric equatorial cartesian coordinates (au, au/d):
   X=-1.939506134025900E+00  Y=-2.705226216575929E+00  Z=-4.348919530766766E-01
  VX= 6.509183071584166E-03 VY=-4.684570339042606E-03 VZ=-1.128354090103105E-03
Asteroid physical parameters (km, seconds, rotational period in hours):        
   GM= n.a.                RAD= 123.298            ROTPER= 7.21                
   H= 5.33                 G= .320                 B-V= .824                   
                           ALBEDO= .214            STYP= Sk                    
*******************************************************************************
            JDTDB,            Calendar Date (TDB),                     EC,                     QR,                     IN,                     OM,                      W,                     Tp,                      N,                     MA,                     TA,                      A,                     AD,                     PR,
**************************************************************************************************************************************************************************************************************************************************************************************************************************************************
$$SOE
2460844.356000000, A.D. 2025-Jun-17 20:32:38.4000,  2.541027976458271E-01,  1.999058688954039E+00,  1.296632672860111E+01,  1.698525549518232E+02,  2.477049494066075E+02,  2.461633831967487E+06,  2.247891815017327E-01,  1.825343434534275E+02,  1.815586253842358E+02,  2.680072646263700E+00,  3.361086603573360E+00,  1.601500559746578E+03,
2460855.314000000, A.D. 2025-Jun-28 19:32:09.6000,  2.541268860310328E-01,  1.998963962819720E+00,  1.296609066063105E+01,  1.698496606782468E+02,  2.476908351386492E+02,  2.461633691022213E+06,  2.247942701546922E-01,  1.850253053866360E+02,  1.830911937302278E+02,  2.680032200360140E+00,  3.361100437900559E+00,  1.601464306684801E+03,
2460866.272000000, A.D. 2025-Jul-09 18:31:40.8000,  2.541544305963798E-01,  1.998859689458008E+00,  1.296587115281341E+01,  1.698467296028961E+02,  2.476771366440026E+02,  2.461633552346624E+06,  2.247994073548638E-01,  1.875158328037736E+02,  1.846248339594004E+02,  2.679991370138862E+00,  3.361123050819715E+00,  1.601427709423233E+03,
2460877.230000000, A.D. 2025-Jul-20 17:31:12.0000,  2.541853623312935E-01,  1.998745997397384E+00,  1.296566843169180E+01,  1.698437626071183E+02,  2.476638783398045E+02,  2.461633416010894E+06,  2.248046027025339E-01,  1.900059042517487E+02,  1.861602534275939E+02,  2.679950079345632E+00,  3.361154161293880E+00,  1.601390699621749E+03,
2460888.188000000, A.D. 2025-Jul-31 16:30:43.2000,  2.542196128404176E-01,  1.998623009173752E+00,  1.296548273815273E+01,  1.698407605572220E+02,  2.476510846544513E+02,  2.461633282084925E+06,  2.248098665336148E-01,  1.924954982129947E+02,  1.876981637464178E+02,  2.679908245892346E+00,  3.361193482610941E+00,  1.601353203713462E+03,
2460899.146000000, A.D. 2025-Aug-11 15:30:14.4000,  2.542571141757593E-01,  1.998490841386043E+00,  1.296531432874206E+01,  1.698377243151232E+02,  2.476387801271911E+02,  2.461633150638818E+06,  2.248152099869355E-01,  1.949845929927278E+02,  1.892392821215266E+02,  2.679865781323798E+00,  3.361240721261553E+00,  1.601315142427064E+03,
2460910.104000000, A.D. 2025-Aug-22 14:29:45.6000,  2.542977985719377E-01,  1.998349604951689E+00,  1.296516347745364E+01,  1.698346547626697E+02,  2.476269895443942E+02,  2.461633021743681E+06,  2.248206450816985E-01,  1.974731665246184E+02,  1.907843326585840E+02,  2.679822590203885E+00,  3.361295575456081E+00,  1.601276430236992E+03,
2460921.062000000, A.D. 2025-Sep-02 13:29:16.8000,  2.543415985596723E-01,  1.998199403507461E+00,  1.296503047762841E+01,  1.698315528423070E+02,  2.476157380913231E+02,  2.461632895472168E+06,  2.248261849369643E-01,  1.999611961419155E+02,  1.923340476597285E+02,  2.679778568373536E+00,  3.361357733239612E+00,  1.601236973802385E+03,
2460932.020000000, A.D. 2025-Sep-13 12:28:48.0000,  2.543884474311501E-01,  1.998040330372624E+00,  1.296491564187595E+01,  1.698284195725521E+02,  2.476050514409800E+02,  2.461632771898074E+06,  2.248318440748397E-01,  2.024486585170658E+02,  1.938891690334140E+02,  2.679733600544131E+00,  3.361426870715638E+00,  1.601196669810558E+03,
2460942.978000000, A.D. 2025-Sep-24 11:28:19.2000,  2.544382788672364E-01,  1.997872469331574E+00,  1.296481930012344E+01,  1.698252560120667E+02,  2.475949557731186E+02,  2.461632651096048E+06,  2.248376384583422E-01,  2.049355297762933E+02,  1.954504498548868E+02,  2.679687559999890E+00,  3.361502650668206E+00,  1.601155404710856E+03,
2460953.936000000, A.D. 2025-Oct-05 10:27:50.4000,  2.544910259794089E-01,  1.997695897527199E+00,  1.296474179971388E+01,  1.698220632559583E+02,  2.475854778809767E+02,  2.461632533142582E+06,  2.248435854377995E-01,  2.074217853940827E+02,  1.970186558437416E+02,  2.679640309027349E+00,  3.361584720527500E+00,  1.601113055100208E+03,
2460964.894000000, A.D. 2025-Oct-16 09:27:21.6000,  2.545466209687741E-01,  1.997510685433840E+00,  1.296468350636673E+01,  1.698188424610049E+02,  2.475766453085222E+02,  2.461632418116656E+06,  2.248497039111701E-01,  2.099074000163830E+02,  1.985945668231701E+02,  2.679591697645477E+00,  3.361672709857114E+00,  1.601069486585683E+03,
2460975.852000000, A.D. 2025-Oct-27 08:26:52.8000,  2.546049949600753E-01,  1.997316896255662E+00,  1.296464480418671E+01,  1.698155948379078E+02,  2.475684864324411E+02,  2.461632306099698E+06,  2.248560145024094E-01,  2.123923474381345E+02,  2.001789783108474E+02,  2.679541562193164E+00,  3.361766228130666E+00,  1.601024552519330E+03,
2460986.810000000, A.D. 2025-Nov-07 07:26:24.0000,  2.546660771043439E-01,  1.997114588603172E+00,  1.296462609592064E+01,  1.698123216121210E+02,  2.475610304861104E+02,  2.461632197175779E+06,  2.248625395173939E-01,  2.148766006824359E+02,  2.017727032474705E+02,  2.679489725684686E+00,  3.361864862766200E+00,  1.600978094317719E+03,
